{
  "type": "FeatureCollection",
  "features": [
    {
      "type": "Feature",
      "properties": {
        "norad_id": 66651,
        "name": "2025-274B",
        "group": "last-30-days",
        "lat": 38.266581742807816,
        "lon": 102.9551882404189,
        "alt_km": 590.5152347822468,
        "timestamp": "2025-12-15T15:53:18.661612+00:00",
        "meta_object_name": "2025-274B",
        "meta_object_id": "2025-274B",
        "meta_epoch": "2025-12-14T18:19:46.496640",
        "meta_mean_motion": 14.91819196,
        "meta_eccentricity": 0.00106352,
        "meta_inclination": 97.7387,
        "meta_ra_of_asc_node": 275.9156,
        "meta_arg_of_pericenter": 242.5897,
        "meta_mean_anomaly": 117.424,
        "meta_ephemeris_type": 0,
        "meta_classification_type": "U",
        "meta_norad_cat_id": 66651,
        "meta_element_set_no": 999,
        "meta_rev_at_epoch": 270,
        "meta_bstar": 0.00037284595,
        "meta_mean_motion_dot": 3.71e-05,
        "meta_mean_motion_ddot": 0,
        "tle_line1": "1 66651U 25274B   25348.76373260  .00003710  00000+0  37285-3 0  9998",
        "tle_line2": "2 66651  97.7387 275.9156 0010635 242.5897 117.4240 14.91819196  2701"
      },
      "geometry": {
        "type": "Point",
        "coordinates": [
          102.9551882404189,
          38.266581742807816
        ]
      }
    },
    {
      "type": "Feature",
      "properties": {
        "norad_id": 66652,
        "name": "2025-274C",
        "group": "last-30-days",
        "lat": 29.621541233391746,
        "lon": 101.2368780162158,
        "alt_km": 591.3590870508442,
        "timestamp": "2025-12-15T15:53:18.661621+00:00",
        "meta_object_name": "2025-274C",
        "meta_object_id": "2025-274C",
        "meta_epoch": "2025-12-14T08:38:02.061312",
        "meta_mean_motion": 14.91914655,
        "meta_eccentricity": 0.0010232,
        "meta_inclination": 97.739,
        "meta_ra_of_asc_node": 275.5236,
        "meta_arg_of_pericenter": 251.2114,
        "meta_mean_anomaly": 108.7995,
        "meta_ephemeris_type": 0,
        "meta_classification_type": "U",
        "meta_norad_cat_id": 66652,
        "meta_element_set_no": 999,
        "meta_rev_at_epoch": 264,
        "meta_bstar": 0.00040133299,
        "meta_mean_motion_dot": 4.008e-05,
        "meta_mean_motion_ddot": 0,
        "tle_line1": "1 66652U 25274C   25348.35974608  .00004008  00000+0  40133-3 0  9994",
        "tle_line2": "2 66652  97.7390 275.5236 0010232 251.2114 108.7995 14.91914655  2642"
      },
      "geometry": {
        "type": "Point",
        "coordinates": [
          101.2368780162158,
          29.621541233391746
        ]
      }
    },
    {
      "type": "Feature",
      "properties": {
        "norad_id": 66653,
        "name": "2025-274D",
        "group": "last-30-days",
        "lat": 29.190413806119086,
        "lon": 101.15923743787583,
        "alt_km": 590.8889002615624,
        "timestamp": "2025-12-15T15:53:18.661630+00:00",
        "meta_object_name": "2025-274D",
        "meta_object_id": "2025-274D",
        "meta_epoch": "2025-12-14T08:37:55.084512",
        "meta_mean_motion": 14.9191974,
        "meta_eccentricity": 0.00111413,
        "meta_inclination": 97.7388,
        "meta_ra_of_asc_node": 275.5235,
        "meta_arg_of_pericenter": 247.1824,
        "meta_mean_anomaly": 112.8218,
        "meta_ephemeris_type": 0,
        "meta_classification_type": "U",
        "meta_norad_cat_id": 66653,
        "meta_element_set_no": 999,
        "meta_rev_at_epoch": 264,
        "meta_bstar": 0.0003446485,
        "meta_mean_motion_dot": 3.434e-05,
        "meta_mean_motion_ddot": 0,
        "tle_line1": "1 66653U 25274D   25348.35966533  .00003434  00000+0  34465-3 0  9996",
        "tle_line2": "2 66653  97.7388 275.5235 0011141 247.1824 112.8218 14.91919740  2645"
      },
      "geometry": {
        "type": "Point",
        "coordinates": [
          101.15923743787583,
          29.190413806119086
        ]
      }
    },
    {
      "type": "Feature",
      "properties": {
        "norad_id": 66654,
        "name": "JACK E",
        "group": "last-30-days",
        "lat": 17.762033012047517,
        "lon": 99.30446519496779,
        "alt_km": 590.7869111006194,
        "timestamp": "2025-12-15T15:53:18.661640+00:00",
        "meta_object_name": "JACK E",
        "meta_object_id": "2025-274E",
        "meta_epoch": "2025-12-14T08:35:02.534208",
        "meta_mean_motion": 14.92097197,
        "meta_eccentricity": 0.00116568,
        "meta_inclination": 97.7391,
        "meta_ra_of_asc_node": 275.5266,
        "meta_arg_of_pericenter": 248.9562,
        "meta_mean_anomaly": 111.0411,
        "meta_ephemeris_type": 0,
        "meta_classification_type": "U",
        "meta_norad_cat_id": 66654,
        "meta_element_set_no": 999,
        "meta_rev_at_epoch": 264,
        "meta_bstar": 0.00038694322,
        "meta_mean_motion_dot": 3.881e-05,
        "meta_mean_motion_ddot": 0,
        "tle_line1": "1 66654U 25274E   25348.35766822  .00003881  00000+0  38694-3 0  9990",
        "tle_line2": "2 66654  97.7391 275.5266 0011656 248.9562 111.0411 14.92097197  2643"
      },
      "geometry": {
        "type": "Point",
        "coordinates": [
          99.30446519496779,
          17.762033012047517
        ]
      }
    },
    {
      "type": "Feature",
      "properties": {
        "norad_id": 66655,
        "name": "2025-274F",
        "group": "last-30-days",
        "lat": 24.269515720837774,
        "lon": 100.31618775892713,
        "alt_km": 597.0464139131645,
        "timestamp": "2025-12-15T15:53:18.661649+00:00",
        "meta_object_name": "2025-274F",
        "meta_object_id": "2025-274F",
        "meta_epoch": "2025-12-14T18:15:25.236000",
        "meta_mean_motion": 14.91100488,
        "meta_eccentricity": 0.00052118,
        "meta_inclination": 97.7328,
        "meta_ra_of_asc_node": 275.9206,
        "meta_arg_of_pericenter": 9.5015,
        "meta_mean_anomaly": 350.6301,
        "meta_ephemeris_type": 0,
        "meta_classification_type": "U",
        "meta_norad_cat_id": 66655,
        "meta_element_set_no": 999,
        "meta_rev_at_epoch": 270,
        "meta_bstar": 1.5560755e-05,
        "meta_mean_motion_dot": 9.9e-07,
        "meta_mean_motion_ddot": 0,
        "tle_line1": "1 66655U 25274F   25348.76070875  .00000099  00000+0  15561-4 0  9999",
        "tle_line2": "2 66655  97.7328 275.9206 0005211   9.5015 350.6301 14.91100488  2709"
      },
      "geometry": {
        "type": "Point",
        "coordinates": [
          100.31618775892713,
          24.269515720837774
        ]
      }
    },
    {
      "type": "Feature",
      "properties": {
        "norad_id": 66656,
        "name": "2025-274G",
        "group": "last-30-days",
        "lat": 5.253675292290157,
        "lon": 97.52910142779734,
        "alt_km": 590.3997398190377,
        "timestamp": "2025-12-15T15:53:18.661659+00:00",
        "meta_object_name": "2025-274G",
        "meta_object_id": "2025-274G",
        "meta_epoch": "2025-12-14T21:24:20.324160",
        "meta_mean_motion": 14.92290822,
        "meta_eccentricity": 0.00123217,
        "meta_inclination": 97.7391,
        "meta_ra_of_asc_node": 276.056,
        "meta_arg_of_pericenter": 248.7923,
        "meta_mean_anomaly": 111.198,
        "meta_ephemeris_type": 0,
        "meta_classification_type": "U",
        "meta_norad_cat_id": 66656,
        "meta_element_set_no": 999,
        "meta_rev_at_epoch": 272,
        "meta_bstar": 0.00029156278,
        "meta_mean_motion_dot": 2.925e-05,
        "meta_mean_motion_ddot": 0,
        "tle_line1": "1 66656U 25274G   25348.89190190  .00002925  00000+0  29156-3 0  9991",
        "tle_line2": "2 66656  97.7391 276.0560 0012321 248.7923 111.1980 14.92290822  2728"
      },
      "geometry": {
        "type": "Point",
        "coordinates": [
          97.52910142779734,
          5.253675292290157
        ]
      }
    },
    {
      "type": "Feature",
      "properties": {
        "norad_id": 66657,
        "name": "SPIRONE",
        "group": "last-30-days",
        "lat": -6.868529896838065,
        "lon": 95.8784635839985,
        "alt_km": 592.6344490722549,
        "timestamp": "2025-12-15T15:53:18.661669+00:00",
        "meta_object_name": "SPIRONE",
        "meta_object_id": "2025-274H",
        "meta_epoch": "2025-12-14T21:21:11.889216",
        "meta_mean_motion": 14.92469641,
        "meta_eccentricity": 0.0010573,
        "meta_inclination": 97.7387,
        "meta_ra_of_asc_node": 276.0581,
        "meta_arg_of_pericenter": 267.8338,
        "meta_mean_anomaly": 92.1671,
        "meta_ephemeris_type": 0,
        "meta_classification_type": "U",
        "meta_norad_cat_id": 66657,
        "meta_element_set_no": 999,
        "meta_rev_at_epoch": 272,
        "meta_bstar": 0.00029561901,
        "meta_mean_motion_dot": 2.979e-05,
        "meta_mean_motion_ddot": 0,
        "tle_line1": "1 66657U 25274H   25348.88972094  .00002979  00000+0  29562-3 0  9992",
        "tle_line2": "2 66657  97.7387 276.0581 0010573 267.8338  92.1671 14.92469641  2728"
      },
      "geometry": {
        "type": "Point",
        "coordinates": [
          95.8784635839985,
          -6.868529896838065
        ]
      }
    }
  ]
}